ONEWEB-0208             
1 48243U 21031AK  25272.22818478 -.00004434  00000+0 -11996-1 0  9999
2 48243  87.9067 341.6732 0002050 102.0981 258.0379 13.14522215214023
ONEWEB-0200             
1 48244U 21031AL  25272.19170614  .00000247  00000+0  63084-3 0  9992
2 48244  87.9068 341.6708 0001852  99.7988 260.3351 13.14504950213948
ONEWEB-0217             
1 48245U 21031AM  25272.20757012 -.00000065  00000+0 -20917-3 0  9996
2 48245  87.9076 341.6550 0001951 108.6191 251.5151 13.14500975213896
ONEWEB-0211             
1 48767U 21045A   25272.05398393 -.00000030  00000+0 -11209-3 0  9992
2 48767  87.9010 311.2415 0001643 103.6984 256.4329 13.16085931210091
ONEWEB-0223             
1 48768U 21045B   25272.01240473  .00000103  00000+0  24053-3 0  9994
2 48768  87.8999 311.3049 0001515 107.9048 252.2248 13.15547114210063
ONEWEB-0230             
1 48769U 21045C   25272.05992601 -.00000063  00000+0 -20272-3 0  9992
2 48769  87.8994 311.3275 0001769  88.4585 271.6748 13.15550260210336
ONEWEB-0237             
1 48770U 21045D   25272.12489934 -.00000012  00000+0 -65055-4 0  9995
2 48770  87.9000 311.3118 0001564  97.1214 263.0094 13.15547076210062
ONEWEB-0235             
1 48771U 21045E   25272.09955490  .00000183  00000+0  45218-3 0  9992
2 48771  87.8999 311.2884 0001448 107.6218 252.5070 13.15549787210057
ONEWEB-0242             
1 48772U 21045F   25271.86501895  .00000287  00000+0  72888-3 0  9991
2 48772  87.9006 311.3228 0001620  94.8887 265.2428 13.15550627210066
ONEWEB-0241             
1 48773U 21045G   25271.47206612  .00000096  00000+0  22023-3 0  9992
2 48773  87.8993 311.4466 0001738 110.3367 249.7950 13.15550130209922
ONEWEB-0243             
1 48774U 21045H   25272.11221518  .00000125  00000+0  29924-3 0  9997
2 48774  87.9006 311.3232 0001408  97.1526 262.9765 13.15546735210033
ONEWEB-0222             
1 48775U 21045J   25271.63924900  .00000159  00000+0  38774-3 0  9999
2 48775  87.9004 311.3697 0001721  99.2647 260.8678 13.15547469210015
ONEWEB-0244             
1 48776U 21045K   25272.12171231  .00000049  00000+0  94879-4 0  9993
2 48776  87.9011 311.2564 0001657  93.8037 266.3283 13.15546547210645
ONEWEB-0247             
1 48777U 21045L   25272.11855681  .00000050  00000+0  97752-4 0  9996
2 48777  87.9001 311.3241 0000979 117.8821 242.2408 13.15547169210083
ONEWEB-0245             
1 48778U 21045M   25272.11381394  .00000148  00000+0  35890-3 0  9994
2 48778  87.8999 311.2888 0001866 101.3837 258.7503 13.15547946210054
ONEWEB-0229             
1 48779U 21045N   25272.18510976  .00000048  00000+0  93637-4 0  9995
2 48779  87.8999 311.2743 0001646  91.4921 268.6398 13.15547210210094
ONEWEB-0228             
1 48780U 21045P   25272.06640524 -.00000051  00000+0 -16874-3 0  9990
2 48780  87.9003 311.2743 0001702  95.1088 265.0237 13.15547172209998
ONEWEB-0232             
1 48781U 21045Q   25272.19304432  .00000087  00000+0  19594-3 0  9999
2 48781  87.9000 311.2408 0001771  94.5494 265.5839 13.15548448210334
ONEWEB-0231             
1 48782U 21045R   25272.09479722  .00000169  00000+0  41617-3 0  9996
2 48782  87.8994 311.3118 0001511  98.1893 261.9409 13.15546847210019
ONEWEB-0234             
1 48783U 21045S   25272.05662879 -.00000057  00000+0 -18653-3 0  9992
2 48783  87.9002 311.2892 0002630 101.6306 258.5119 13.15546805210149
ONEWEB-0238             
1 48784U 21045T   25271.52449345 -.00000111  00000+0 -32937-3 0  9997
2 48784  87.8999 311.3908 0002216  98.8899 261.2482 13.15550311209977
ONEWEB-0240             
1 48785U 21045U   25271.54576033  .00000065  00000+0  13947-3 0  9991
2 48785  87.9005 311.3727 0001814 108.6246 251.5081 13.15551300210007
ONEWEB-0246             
1 48786U 21045V   25272.07259898 -.00000072  00000+0 -22404-3 0  9996
2 48786  87.9006 311.2801 0001645  93.7181 266.4137 13.15550023209944
ONEWEB-0210             
1 48787U 21045W   25272.12330943  .00000012  00000+0 -17996-5 0  9999
2 48787  87.9010 311.2695 0001115  95.1165 265.0093 13.15550093209999
ONEWEB-0214             
1 48788U 21045X   25271.67567604 -.00000102  00000+0 -30376-3 0  9991
2 48788  87.9005 311.3461 0001422  88.0300 272.0993 13.15549379209902
ONEWEB-0221             
1 48789U 21045Y   25272.06310028 -.00000088  00000+0 -26777-3 0  9995
2 48789  87.8996 311.2931 0001658 100.1485 259.9833 13.15547563210040
ONEWEB-0213             
1 48790U 21045Z   25272.12805569 -.00000061  00000+0 -19650-3 0  9996
2 48790  87.9000 311.2891 0001532  94.8444 265.2861 13.15550480210110
ONEWEB-0212             
1 48791U 21045AA  25272.10509219  .00000167  00000+0  40872-3 0  9993
2 48791  87.9004 311.2771 0001853  96.1728 263.9614 13.15549800210102
ONEWEB-0227             
1 48792U 21045AB  25272.10430786  .00000182  00000+0  44847-3 0  9999
2 48792  87.8998 311.2947 0001722  98.3528 261.7798 13.15547322210056
ONEWEB-0226             
1 48793U 21045AC  25272.09795657  .00000196  00000+0  48596-3 0  9999
2 48793  87.8998 311.3038 0001438  96.2060 263.9234 13.15549476210029
ONEWEB-0224             
1 48794U 21045AD  25272.06152723 -.00000072  00000+0 -22401-3 0  9990
2 48794  87.8999 311.3462 0002280 118.4917 241.6443 13.15548157209945
ONEWEB-0233             
1 48795U 21045AE  25272.06612633 -.00000069  00000+0 -21772-3 0  9998
2 48795  87.8999 311.3563 0001684 105.2434 254.8882 13.15549609209961
ONEWEB-0190             
1 48796U 21045AF  25272.12964739 -.00000077  00000+0 -23906-3 0  9993
2 48796  87.8999 311.3061 0001200 112.9100 247.2157 13.15547297210047
ONEWEB-0236             
1 48797U 21045AG  25272.07101462 -.00000097  00000+0 -29271-3 0  9997
2 48797  87.8997 311.3290 0001959  94.2805 265.8550 13.15550344209920
ONEWEB-0248             
1 48798U 21045AH  25271.62734261 -.00000137  00000+0 -39854-3 0  9990
2 48798  87.9007 311.3736 0001771 116.9396 243.1915 13.15547449210027
ONEWEB-0225             
1 48799U 21045AJ  25272.10587691  .00000146  00000+0  35427-3 0  9998
2 48799  87.9000 311.3082 0001305 110.1491 249.9780 13.15549961210092
ONEWEB-0215             
1 48800U 21045AK  25271.16310205  .00000076  00000+0  16735-3 0  9994
2 48800  87.9011 311.4490 0001460 117.4697 242.6582 13.15548141209841
ONEWEB-0216             
1 48801U 21045AL  25271.62895369  .00000134  00000+0  32264-3 0  9995
2 48801  87.8995 311.3960 0001622  90.0213 270.1103 13.15550145209913
ONEWEB-0239             
1 48802U 21045AM  25271.63368426  .00000162  00000+0  39612-3 0  9991
2 48802  87.8999 311.4091 0001764 123.1794 236.9506 13.15550512209952
ONEWEB-0249             
1 48967U 21060A   25271.92653719  .00000039  00000+0  68505-4 0  9991
2 48967  87.8965 280.8420 0001889  93.7697 266.3650 13.16595628205236
ONEWEB-0250             
1 48968U 21060B   25272.11183474  .00000012  00000+0 -20440-5 0  9999
2 48968  87.8965 279.4154 0002589 112.2861 247.8550 13.25813854205623
ONEWEB-0252             
1 48970U 21060D   25272.03419871  .00000044  00000+0  81415-4 0  9998
2 48970  87.8967 280.8137 0001763  80.5833 279.5498 13.16592869205290
ONEWEB-0253             
1 48971U 21060E   25272.09911504  .00000075  00000+0  16137-3 0  9997
2 48971  87.8966 280.8042 0001635  93.9450 266.1868 13.16592836205237
ONEWEB-0254             
1 48972U 21060F   25272.10862594  .00000051  00000+0  98617-4 0  9992
2 48972  87.8972 280.7901 0001724 104.7501 255.3822 13.16595386205238
ONEWEB-0255             
1 48973U 21060G   25271.46264422  .00000056  00000+0  11400-3 0  9996
2 48973  87.8959 280.9437 0001709  98.8256 261.3069 13.16592685205221
ONEWEB-0256             
1 48974U 21060H   25271.94474621  .00000110  00000+0  25394-3 0  9992
2 48974  87.8961 280.8576 0001831  85.8715 274.2625 13.16593018205255
ONEWEB-0257             
1 48975U 21060J   25272.05319729 -.00000055  00000+0 -17790-3 0  9994
2 48975  87.8969 280.8071 0001650  93.5034 266.6286 13.16596023205227
ONEWEB-0258             
1 48976U 21060K   25272.05479075 -.00000039  00000+0 -13588-3 0  9999
2 48976  87.8960 280.8286 0001924  92.9017 267.2335 13.16592780205234
ONEWEB-0259             
1 48977U 21060L   25271.97245067 -.00000006  00000+0 -48985-4 0  9996
2 48977  87.8969 280.8321 0001783  96.7269 263.4065 13.16596236205258
ONEWEB-0260             
1 48978U 21060M   25272.11573736 -.00000019  00000+0 -83969-4 0  9996
2 48978  87.8961 280.8250 0001628  75.4541 284.6771 13.16592415205251
ONEWEB-0261             
1 48979U 21060N   25272.00967564  .00000120  00000+0  28060-3 0  9992
2 48979  87.8957 280.8484 0001414  98.4496 261.6796 13.16594638205298
ONEWEB-0262             
1 48980U 21060P   25272.06587104  .00000002  00000+0 -28774-4 0  9991
2 48980  87.8971 280.8026 0001914 101.6436 258.4910 13.16592825205269
ONEWEB-0263             
1 48981U 21060Q   25271.94554724  .00000103  00000+0  23567-3 0  9995
2 48981  87.8960 280.8474 0001519 102.9820 257.1481 13.16595248205213
ONEWEB-0264             
1 48982U 21060R   25272.05876213 -.00000015  00000+0 -73192-4 0  9993
2 48982  87.8958 280.8293 0001614  88.2064 271.9252 13.16593567205236
ONEWEB-0266             
1 48984U 21060T   25271.54813881  .00000046  00000+0  86706-4 0  9997
2 48984  87.8964 280.9099 0002011  94.0445 266.0916 13.16596150205154
ONEWEB-0267             
1 48985U 21060U   25272.01521121  .00000100  00000+0  22842-3 0  9995
2 48985  87.8965 280.8190 0001571  94.8772 265.2538 13.16595237205222
ONEWEB-0268             
1 48986U 21060V   25272.05952782 -.00000279  00000+0 -76372-3 0  9997
2 48986  87.8967 280.8160 0001786  89.0597 271.0738 13.16593323205491
ONEWEB-0269             
1 48987U 21060W   25272.04055332 -.00000098  00000+0 -29094-3 0  9990
2 48987  87.8960 280.8488 0001905  84.2534 275.8814 13.16593854205260
ONEWEB-0270             
1 48988U 21060X   25272.05794954 -.00000029  00000+0 -10916-3 0  9999
2 48988  87.8967 280.8182 0001631 105.5464 254.5847 13.16596063205304
